      3.02          NAVIGATION          E: GALILEO          RINEX VERSION / TYPE
StudioView          Spectracom          20171215 103944 UTC PGM / RUN BY / DATE
                                                            COMMENT
GAUT  0.0000000000e+00 0.000000000e+00      0    0        0 TIME SYSTEM CORR
GAL    6.8250E+01  1.1719E-01 -2.7466E-03  0.0000E+00       IONOSPHERIC CORR    
    18     0     0     0                                    LEAP SECONDS
                                                            END OF HEADER
E02 2017 10 04 07 40 00 1.513352612277e-04 8.266454187830e-11 0.000000000000e+00
     4.800000000000e+01 3.312500000000e+00 3.233348967680e-09 3.109212293152e+00
     1.247972249980e-07 1.775614218790e-04 7.990747690200e-06 5.440620103840e+03
     2.868000000000e+05-4.842877388000e-08 2.237396281704e+00 2.235174179080e-08
     9.646377634629e-01 1.727500000000e+02 2.387986889220e+00-5.708094907920e-09
    -5.068068248240e-10 5.130000000000e+02 1.969000000000e+03 0.000000000000e+00
     3.120000000000e+00 0.000000000000e+00-2.261137080193e-09-2.726798367500e-09
     2.874000000000e+05
E03 2017 10 04 07 40 00 1.514352612277e-04 8.266454187830e-11 0.000000000000e+00
     4.800000000000e+01 3.312500000000e+00 3.233348967680e-09-2.475841313230e+00
     1.247972249980e-07 1.775614218790e-04 7.990747690200e-06 5.440620103840e+03
     2.868000000000e+05-4.842877388000e-08 2.237396281704e+00 2.235174179080e-08
     9.646377634629e-01 1.727500000000e+02 2.387986889220e+00-5.708094907920e-09
    -5.068068248240e-10 5.130000000000e+02 1.969000000000e+03 0.000000000000e+00
     3.120000000000e+00 0.000000000000e+00-1.961137080193e-09-2.426798367500e-09
     2.874000000000e+05
E21 2017 10 04 07 40 00 1.532352612277e-04 8.266454187830e-11 0.000000000000e+00
     4.800000000000e+01 3.312500000000e+00 3.233348967680e-09-2.475841313230e+00
     1.247972249980e-07 1.775614218790e-04 7.990747690200e-06 5.440620103840e+03
     2.868000000000e+05-4.842877388000e-08 1.430011793108e-01 2.235174179080e-08
     9.646377634629e-01 1.727500000000e+02 2.387986889220e+00-5.708094907920e-09
    -5.068068248240e-10 5.130000000000e+02 1.969000000000e+03 0.000000000000e+00
     3.120000000000e+00 0.000000000000e+00 3.438862919807e-09 2.973201632500e-09
     2.874000000000e+05
E22 2017 10 04 07 40 00 1.533352612277e-04 8.266454187830e-11 0.000000000000e+00
     4.800000000000e+01 3.312500000000e+00 3.233348967680e-09-1.777709612432e+00
     1.247972249980e-07 1.775614218790e-04 7.990747690200e-06 5.440620103840e+03
     2.868000000000e+05-4.842877388000e-08 1.430011793108e-01 2.235174179080e-08
     9.646377634629e-01 1.727500000000e+02 2.387986889220e+00-5.708094907920e-09
    -5.068068248240e-10 5.130000000000e+02 1.969000000000e+03 0.000000000000e+00
     3.120000000000e+00 0.000000000000e+00 3.738862919807e-09 3.273201632500e-09
     2.874000000000e+05
E23 2017 10 04 07 40 00 1.534352612277e-04 8.266454187830e-11 0.000000000000e+00
     4.800000000000e+01 3.312500000000e+00 3.233348967680e-09-1.079577911635e+00
     1.247972249980e-07 1.775614218790e-04 7.990747690200e-06 5.440620103840e+03
     2.868000000000e+05-4.842877388000e-08 1.430011793108e-01 2.235174179080e-08
     9.646377634629e-01 1.727500000000e+02 2.387986889220e+00-5.708094907920e-09
    -5.068068248240e-10 5.130000000000e+02 1.969000000000e+03 0.000000000000e+00
     3.120000000000e+00 0.000000000000e+00 4.038862919807e-09 3.573201632500e-09
     2.874000000000e+05
E24 2017 10 04 07 40 00 1.535352612277e-04 8.266454187830e-11 0.000000000000e+00
     4.800000000000e+01 3.312500000000e+00 3.233348967680e-09-3.814462108369e-01
     1.247972249980e-07 1.775614218790e-04 7.990747690200e-06 5.440620103840e+03
     2.868000000000e+05-4.842877388000e-08 1.430011793108e-01 2.235174179080e-08
     9.646377634629e-01 1.727500000000e+02 2.387986889220e+00-5.708094907920e-09
    -5.068068248240e-10 5.130000000000e+02 1.969000000000e+03 0.000000000000e+00
     3.120000000000e+00 0.000000000000e+00 4.338862919807e-09 3.873201632500e-09
     2.874000000000e+05
E02 2017 10 04 08 30 00 1.515832548533e-04 8.266454187830e-11 0.000000000000e+00
     4.900000000000e+01 3.312500000000e+00 3.233348967680e-09-2.802047250317e+00
     1.247972249980e-07 1.775614218790e-04 7.990747690200e-06 5.440620103840e+03
     2.898000000000e+05-4.842877388000e-08 2.237379157419e+00 2.235174179080e-08
     9.646362430424e-01 1.727500000000e+02 2.387986889220e+00-5.708094907920e-09
    -5.068068248240e-10 5.130000000000e+02 1.969000000000e+03 0.000000000000e+00
     3.120000000000e+00 0.000000000000e+00-2.261137080193e-09-2.726798367500e-09
     2.904000000000e+05
E03 2017 10 04 08 30 00 1.516832548533e-04 8.266454187830e-11 0.000000000000e+00
     4.900000000000e+01 3.312500000000e+00 3.233348967680e-09-2.103915549519e+00
     1.247972249980e-07 1.775614218790e-04 7.990747690200e-06 5.440620103840e+03
     2.898000000000e+05-4.842877388000e-08 2.237379157419e+00 2.235174179080e-08
     9.646362430424e-01 1.727500000000e+02 2.387986889220e+00-5.708094907920e-09
    -5.068068248240e-10 5.130000000000e+02 1.969000000000e+03 0.000000000000e+00
     3.120000000000e+00 0.000000000000e+00-1.961137080193e-09-2.426798367500e-09
     2.904000000000e+05
E21 2017 10 04 08 30 00 1.534832548533e-04 8.266454187830e-11 0.000000000000e+00
     4.900000000000e+01 3.312500000000e+00 3.233348967680e-09-2.103915549519e+00
     1.247972249980e-07 1.775614218790e-04 7.990747690200e-06 5.440620103840e+03
     2.898000000000e+05-4.842877388000e-08 1.429840550258e-01 2.235174179080e-08
     9.646362430424e-01 1.727500000000e+02 2.387986889220e+00-5.708094907920e-09
    -5.068068248240e-10 5.130000000000e+02 1.969000000000e+03 0.000000000000e+00
     3.120000000000e+00 0.000000000000e+00 3.438862919807e-09 2.973201632500e-09
     2.904000000000e+05
E22 2017 10 04 08 30 00 1.535832548533e-04 8.266454187830e-11 0.000000000000e+00
     4.900000000000e+01 3.312500000000e+00 3.233348967680e-09-1.405783848721e+00
     1.247972249980e-07 1.775614218790e-04 7.990747690200e-06 5.440620103840e+03
     2.898000000000e+05-4.842877388000e-08 1.429840550258e-01 2.235174179080e-08
     9.646362430424e-01 1.727500000000e+02 2.387986889220e+00-5.708094907920e-09
    -5.068068248240e-10 5.130000000000e+02 1.969000000000e+03 0.000000000000e+00
     3.120000000000e+00 0.000000000000e+00 3.738862919807e-09 3.273201632500e-09
     2.904000000000e+05
E23 2017 10 04 08 30 00 1.536832548533e-04 8.266454187830e-11 0.000000000000e+00
     4.900000000000e+01 3.312500000000e+00 3.233348967680e-09-7.076521479236e-01
     1.247972249980e-07 1.775614218790e-04 7.990747690200e-06 5.440620103840e+03
     2.898000000000e+05-4.842877388000e-08 1.429840550258e-01 2.235174179080e-08
     9.646362430424e-01 1.727500000000e+02 2.387986889220e+00-5.708094907920e-09
    -5.068068248240e-10 5.130000000000e+02 1.969000000000e+03 0.000000000000e+00
     3.120000000000e+00 0.000000000000e+00 4.038862919807e-09 3.573201632500e-09
     2.904000000000e+05
E24 2017 10 04 08 30 00 1.537832548533e-04 8.266454187830e-11 0.000000000000e+00
     4.900000000000e+01 3.312500000000e+00 3.233348967680e-09-9.520447125857e-03
     1.247972249980e-07 1.775614218790e-04 7.990747690200e-06 5.440620103840e+03
     2.898000000000e+05-4.842877388000e-08 1.429840550258e-01 2.235174179080e-08
     9.646362430424e-01 1.727500000000e+02 2.387986889220e+00-5.708094907920e-09
    -5.068068248240e-10 5.130000000000e+02 1.969000000000e+03 0.000000000000e+00
     3.120000000000e+00 0.000000000000e+00 4.338862919807e-09 3.873201632500e-09
     2.904000000000e+05
E02 2017 10 04 09 20 00 1.518312484790e-04 8.266454187830e-11 0.000000000000e+00
     5.000000000000e+01 3.312500000000e+00 3.233348967680e-09-2.430121486606e+00
     1.247972249980e-07 1.775614218790e-04 7.990747690200e-06 5.440620103840e+03
     2.928000000000e+05-4.842877388000e-08 2.237362033135e+00 2.235174179080e-08
     9.646347226220e-01 1.727500000000e+02 2.387986889220e+00-5.708094907920e-09
    -5.068068248240e-10 5.130000000000e+02 1.969000000000e+03 0.000000000000e+00
     3.120000000000e+00 0.000000000000e+00-2.261137080193e-09-2.726798367500e-09
     2.934000000000e+05
E03 2017 10 04 09 20 00 1.519312484790e-04 8.266454187830e-11 0.000000000000e+00
     5.000000000000e+01 3.312500000000e+00 3.233348967680e-09-1.731989785808e+00
     1.247972249980e-07 1.775614218790e-04 7.990747690200e-06 5.440620103840e+03
     2.928000000000e+05-4.842877388000e-08 2.237362033135e+00 2.235174179080e-08
     9.646347226220e-01 1.727500000000e+02 2.387986889220e+00-5.708094907920e-09
    -5.068068248240e-10 5.130000000000e+02 1.969000000000e+03 0.000000000000e+00
     3.120000000000e+00 0.000000000000e+00-1.961137080193e-09-2.426798367500e-09
     2.934000000000e+05
E21 2017 10 04 09 20 00 1.537312484790e-04 8.266454187830e-11 0.000000000000e+00
     5.000000000000e+01 3.312500000000e+00 3.233348967680e-09-1.731989785808e+00
     1.247972249980e-07 1.775614218790e-04 7.990747690200e-06 5.440620103840e+03
     2.928000000000e+05-4.842877388000e-08 1.429669307418e-01 2.235174179080e-08
     9.646347226220e-01 1.727500000000e+02 2.387986889220e+00-5.708094907920e-09
    -5.068068248240e-10 5.130000000000e+02 1.969000000000e+03 0.000000000000e+00
     3.120000000000e+00 0.000000000000e+00 3.438862919807e-09 2.973201632500e-09
     2.934000000000e+05
E22 2017 10 04 09 20 00 1.538312484790e-04 8.266454187830e-11 0.000000000000e+00
     5.000000000000e+01 3.312500000000e+00 3.233348967680e-09-1.033858085010e+00
     1.247972249980e-07 1.775614218790e-04 7.990747690200e-06 5.440620103840e+03
     2.928000000000e+05-4.842877388000e-08 1.429669307418e-01 2.235174179080e-08
     9.646347226220e-01 1.727500000000e+02 2.387986889220e+00-5.708094907920e-09
    -5.068068248240e-10 5.130000000000e+02 1.969000000000e+03 0.000000000000e+00
     3.120000000000e+00 0.000000000000e+00 3.738862919807e-09 3.273201632500e-09
     2.934000000000e+05
